{"type": "FeatureCollection", "features": [{"type": "Feature", "properties": {"norad_id": 28054, "name": "DMSP 5D-3 F16 (USA 172)", "group": "weather", "lat": 71.51382542406803, "lon": -34.56597298922427, "alt_km": 836.6099404225688, "timestamp": "2025-12-02T08:59:32.361970+00:00", "meta": {"OBJECT_NAME": "DMSP 5D-3 F16 (USA 172)", "OBJECT_ID": "2003-048A", "EPOCH": "2025-12-02T03:57:48.176352", "MEAN_MOTION": 14.14418018, "ECCENTRICITY": 0.0006944, "INCLINATION": 99.0054, "RA_OF_ASC_NODE": 353.5386, "ARG_OF_PERICENTER": 352.9295, "MEAN_ANOMALY": 94.4518, "EPHEMERIS_TYPE": 0, "CLASSIFICATION_TYPE": "U", "NORAD_CAT_ID": 28054, "ELEMENT_SET_NO": 999, "REV_AT_EPOCH": 14163, "BSTAR": 0.00011684, "MEAN_MOTION_DOT": 1.78e-06, "MEAN_MOTION_DDOT": 0}, "tle": {"line1": "1 28054U 03048A   25336.16514093  .00000178  00000+0  11684-3 0  9990", "line2": "2 28054  99.0054 353.5386 0006944 352.9295  94.4518 14.14418018141637"}}, "geometry": {"type": "Point", "coordinates": [-34.56597298922427, 71.51382542406803]}}, {"type": "Feature", "properties": {"norad_id": 28912, "name": "METEOSAT-9 (MSG-2)", "group": "weather", "lat": -2.4532220905876945, "lon": -108.22278643358507, "alt_km": 35770.15909444924, "timestamp": "2025-12-02T08:59:32.362020+00:00", "meta": {"OBJECT_NAME": "METEOSAT-9 (MSG-2)", "OBJECT_ID": "2005-049B", "EPOCH": "2025-12-01T19:10:06.009024", "MEAN_MOTION": 1.00270834, "ECCENTRICITY": 0.0003965, "INCLINATION": 8.913, "RA_OF_ASC_NODE": 56.0742, "ARG_OF_PERICENTER": 184.2976, "MEAN_ANOMALY": 163.6684, "EPHEMERIS_TYPE": 0, "CLASSIFICATION_TYPE": "U", "NORAD_CAT_ID": 28912, "ELEMENT_SET_NO": 999, "REV_AT_EPOCH": 501, "BSTAR": 0, "MEAN_MOTION_DOT": 1.42e-06, "MEAN_MOTION_DDOT": 0}, "tle": {"line1": "1 28912U 05049B   25335.79868066  .00000142  00000+0  00000+0 0  9993", "line2": "2 28912   8.9130  56.0742 0003965 184.2976 163.6684  1.00270834  5014"}}, "geometry": {"type": "Point", "coordinates": [-108.22278643358507, -2.4532220905876945]}}, {"type": "Feature", "properties": {"norad_id": 29522, "name": "DMSP 5D-3 F17 (USA 191)", "group": "weather", "lat": -4.048475033519328, "lon": -17.39675567024496, "alt_km": 847.0097328155889, "timestamp": "2025-12-02T08:59:32.362039+00:00", "meta": {"OBJECT_NAME": "DMSP 5D-3 F17 (USA 191)", "OBJECT_ID": "2006-050A", "EPOCH": "2025-12-01T19:26:03.401376", "MEAN_MOTION": 14.14911795, "ECCENTRICITY": 0.0009132, "INCLINATION": 98.7395, "RA_OF_ASC_NODE": 341.4263, "ARG_OF_PERICENTER": 259.046, "MEAN_ANOMALY": 100.9686, "EPHEMERIS_TYPE": 0, "CLASSIFICATION_TYPE": "U", "NORAD_CAT_ID": 29522, "ELEMENT_SET_NO": 999, "REV_AT_EPOCH": 98450, "BSTAR": 0.00012476, "MEAN_MOTION_DOT": 1.98e-06, "MEAN_MOTION_DDOT": 0}, "tle": {"line1": "1 29522U 06050A   25335.80976159  .00000198  00000+0  12476-3 0  9994", "line2": "2 29522  98.7395 341.4263 0009132 259.0460 100.9686 14.14911795984505"}}, "geometry": {"type": "Point", "coordinates": [-17.39675567024496, -4.048475033519328]}}, {"type": "Feature", "properties": {"norad_id": 32958, "name": "FENGYUN 3A", "group": "weather", "lat": -75.757615125385, "lon": 59.17863072916842, "alt_km": 833.6439714823891, "timestamp": "2025-12-02T08:59:32.362052+00:00", "meta": {"OBJECT_NAME": "FENGYUN 3A", "OBJECT_ID": "2008-026A", "EPOCH": "2025-12-02T02:42:06.850656", "MEAN_MOTION": 14.19508922, "ECCENTRICITY": 0.0008417, "INCLINATION": 98.6682, "RA_OF_ASC_NODE": 275.864, "ARG_OF_PERICENTER": 343.0691, "MEAN_ANOMALY": 17.0203, "EPHEMERIS_TYPE": 0, "CLASSIFICATION_TYPE": "U", "NORAD_CAT_ID": 32958, "ELEMENT_SET_NO": 999, "REV_AT_EPOCH": 90744, "BSTAR": 8.5569e-05, "MEAN_MOTION_DOT": 1.37e-06, "MEAN_MOTION_DDOT": 0}, "tle": {"line1": "1 32958U 08026A   25336.11257929  .00000137  00000+0  85569-4 0  9995", "line2": "2 32958  98.6682 275.8640 0008417 343.0691  17.0203 14.19508922907444"}}, "geometry": {"type": "Point", "coordinates": [59.17863072916842, -75.757615125385]}}, {"type": "Feature", "properties": {"norad_id": 35491, "name": "GOES 14", "group": "weather", "lat": 0.26628454474044017, "lon": 97.96028820509329, "alt_km": 35798.59636219826, "timestamp": "2025-12-02T08:59:32.362066+00:00", "meta": {"OBJECT_NAME": "GOES 14", "OBJECT_ID": "2009-033A", "EPOCH": "2025-12-02T02:59:47.491008", "MEAN_MOTION": 1.00272662, "ECCENTRICITY": 0.000414, "INCLINATION": 1.1693, "RA_OF_ASC_NODE": 85.5322, "ARG_OF_PERICENTER": 149.1671, "MEAN_ANOMALY": 133.1394, "EPHEMERIS_TYPE": 0, "CLASSIFICATION_TYPE": "U", "NORAD_CAT_ID": 35491, "ELEMENT_SET_NO": 999, "REV_AT_EPOCH": 461, "BSTAR": 0, "MEAN_MOTION_DOT": -4.7e-07, "MEAN_MOTION_DDOT": 0}, "tle": {"line1": "1 35491U 09033A   25336.12485522 -.00000047  00000+0  00000+0 0  9995", "line2": "2 35491   1.1693  85.5322 0004140 149.1671 133.1394  1.00272662  4618"}}, "geometry": {"type": "Point", "coordinates": [97.96028820509329, 0.26628454474044017]}}, {"type": "Feature", "properties": {"norad_id": 35951, "name": "DMSP 5D-3 F18 (USA 210)", "group": "weather", "lat": -48.23063017702369, "lon": 122.74421349764731, "alt_km": 856.54423418844, "timestamp": "2025-12-02T08:59:32.362079+00:00", "meta": {"OBJECT_NAME": "DMSP 5D-3 F18 (USA 210)", "OBJECT_ID": "2009-057A", "EPOCH": "2025-12-02T04:31:11.534016", "MEAN_MOTION": 14.14759126, "ECCENTRICITY": 0.0012104, "INCLINATION": 98.8822, "RA_OF_ASC_NODE": 312.6425, "ARG_OF_PERICENTER": 90.1662, "MEAN_ANOMALY": 270.0898, "EPHEMERIS_TYPE": 0, "CLASSIFICATION_TYPE": "U", "NORAD_CAT_ID": 35951, "ELEMENT_SET_NO": 999, "REV_AT_EPOCH": 83173, "BSTAR": 0.00017967, "MEAN_MOTION_DOT": 3.02e-06, "MEAN_MOTION_DDOT": 0}, "tle": {"line1": "1 35951U 09057A   25336.18832794  .00000302  00000+0  17967-3 0  9992", "line2": "2 35951  98.8822 312.6425 0012104  90.1662 270.0898 14.14759126831733"}}, "geometry": {"type": "Point", "coordinates": [122.74421349764731, -48.23063017702369]}}, {"type": "Feature", "properties": {"norad_id": 36411, "name": "EWS-G2 (GOES 15)", "group": "weather", "lat": -0.042365109842394, "lon": -92.1323950932492, "alt_km": 35762.85647951465, "timestamp": "2025-12-02T08:59:32.362093+00:00", "meta": {"OBJECT_NAME": "EWS-G2 (GOES 15)", "OBJECT_ID": "2010-008A", "EPOCH": "2025-12-02T03:48:18.110016", "MEAN_MOTION": 1.00267539, "ECCENTRICITY": 0.0005903, "INCLINATION": 0.7853, "RA_OF_ASC_NODE": 86.0559, "ARG_OF_PERICENTER": 169.3361, "MEAN_ANOMALY": 294.4691, "EPHEMERIS_TYPE": 0, "CLASSIFICATION_TYPE": "U", "NORAD_CAT_ID": 36411, "ELEMENT_SET_NO": 999, "REV_AT_EPOCH": 5766, "BSTAR": 0, "MEAN_MOTION_DOT": 5.8e-07, "MEAN_MOTION_DDOT": 0}, "tle": {"line1": "1 36411U 10008A   25336.15854294  .00000058  00000+0  00000+0 0  9992", "line2": "2 36411   0.7853  86.0559 0005903 169.3361 294.4691  1.00267539 57661"}}, "geometry": {"type": "Point", "coordinates": [-92.1323950932492, -0.042365109842394]}}, {"type": "Feature", "properties": {"norad_id": 36744, "name": "COMS 1", "group": "weather", "lat": -4.187801127352863, "lon": -25.509191292757347, "alt_km": 35786.26196924505, "timestamp": "2025-12-02T08:59:32.362106+00:00", "meta": {"OBJECT_NAME": "COMS 1", "OBJECT_ID": "2010-032A", "EPOCH": "2025-12-01T12:42:46.444608", "MEAN_MOTION": 1.00270535, "ECCENTRICITY": 0.00010192, "INCLINATION": 4.3122, "RA_OF_ASC_NODE": 78.1218, "ARG_OF_PERICENTER": 177.7332, "MEAN_ANOMALY": 133.6625, "EPHEMERIS_TYPE": 0, "CLASSIFICATION_TYPE": "U", "NORAD_CAT_ID": 36744, "ELEMENT_SET_NO": 999, "REV_AT_EPOCH": 4910, "BSTAR": 0, "MEAN_MOTION_DOT": -3.23e-06, "MEAN_MOTION_DDOT": 0}, "tle": {"line1": "1 36744U 10032A   25335.52970422 -.00000323  00000+0  00000+0 0  9996", "line2": "2 36744   4.3122  78.1218 0001019 177.7332 133.6625  1.00270535 49109"}}, "geometry": {"type": "Point", "coordinates": [-25.509191292757347, -4.187801127352863]}}, {"type": "Feature", "properties": {"norad_id": 37214, "name": "FENGYUN 3B", "group": "weather", "lat": -12.468475073536128, "lon": -165.72757920774728, "alt_km": 863.1443800487332, "timestamp": "2025-12-02T08:59:32.362119+00:00", "meta": {"OBJECT_NAME": "FENGYUN 3B", "OBJECT_ID": "2010-059A", "EPOCH": "2025-12-02T05:06:06.740064", "MEAN_MOTION": 14.1478499, "ECCENTRICITY": 0.0022492, "INCLINATION": 98.9923, "RA_OF_ASC_NODE": 16.1157, "ARG_OF_PERICENTER": 27.4147, "MEAN_ANOMALY": 59.8668, "EPHEMERIS_TYPE": 0, "CLASSIFICATION_TYPE": "U", "NORAD_CAT_ID": 37214, "ELEMENT_SET_NO": 999, "REV_AT_EPOCH": 77957, "BSTAR": 8.4977e-05, "MEAN_MOTION_DOT": 1.19e-06, "MEAN_MOTION_DDOT": 0}, "tle": {"line1": "1 37214U 10059A   25336.21257801  .00000119  00000+0  84977-4 0  9996", "line2": "2 37214  98.9923  16.1157 0022492  27.4147  59.8668 14.14784990779578"}}, "geometry": {"type": "Point", "coordinates": [-165.72757920774728, -12.468475073536128]}}, {"type": "Feature", "properties": {"norad_id": 37849, "name": "SUOMI NPP", "group": "weather", "lat": -36.98076270477685, "lon": 87.13044213435943, "alt_km": 833.0667697459721, "timestamp": "2025-12-02T08:59:32.362130+00:00", "meta": {"OBJECT_NAME": "SUOMI NPP", "OBJECT_ID": "2011-061A", "EPOCH": "2025-12-02T02:53:47.215104", "MEAN_MOTION": 14.19509173, "ECCENTRICITY": 0.000185, "INCLINATION": 98.7757, "RA_OF_ASC_NODE": 273.5587, "ARG_OF_PERICENTER": 139.1573, "MEAN_ANOMALY": 220.9742, "EPHEMERIS_TYPE": 0, "CLASSIFICATION_TYPE": "U", "NORAD_CAT_ID": 37849, "ELEMENT_SET_NO": 999, "REV_AT_EPOCH": 73048, "BSTAR": 7.3827e-05, "MEAN_MOTION_DOT": 1.11e-06, "MEAN_MOTION_DDOT": 0}, "tle": {"line1": "1 37849U 11061A   25336.12068536  .00000111  00000+0  73827-4 0  9993", "line2": "2 37849  98.7757 273.5587 0001850 139.1573 220.9742 14.19509173730484"}}, "geometry": {"type": "Point", "coordinates": [87.13044213435943, -36.98076270477685]}}]}